{"type": "FeatureCollection", "features": [ {"type": "Feature", "properties": {"norad_id": 67151, "name": "KUIPER-00246", "group": "last-30-days", "lat": 51.82442638427947, "lon": 150.05982249606134, "alt_km": 448.53041826815115, "timestamp": "2025-12-26T18:39:31.001365+00:00", "meta": {"OBJECT_NAME": "KUIPER-00246", "OBJECT_ID": "2025-301U", "EPOCH": "2025-12-26T13:34:36.943104", "MEAN_MOTION": 15.35933694, "ECCENTRICITY": 0.00039602, "INCLINATION": 51.8742, "RA_OF_ASC_NODE": 58.4174, "ARG_OF_PERICENTER": 114.6561, "MEAN_ANOMALY": 245.4838, "EPHEMERIS_TYPE": 0, "CLASSIFICATION_TYPE": "U", "NORAD_CAT_ID": 67151, "ELEMENT_SET_NO": 999, "REV_AT_EPOCH": 251, "BSTAR": 0.00087401428, "MEAN_MOTION_DOT": 0.0003079, "MEAN_MOTION_DDOT": 0}, "tle": {"line1": "1 67151U 25301U   25360.56570536  .00030790  00000+0  87401-3 0  9995", "line2": "2 67151  51.8742  58.4174 0003960 114.6561 245.4838 15.35933694  2510"}}, "geometry": {"type": "Point", "coordinates": [150.05982249606134, 51.82442638427947]}}, {"type": "Feature", "properties": {"norad_id": 67152, "name": "KUIPER-00247", "group": "last-30-days", "lat": 12.626856718435034, "lon": 67.69002391349031, "alt_km": 468.59313571826897, "timestamp": "2025-12-26T18:39:31.001375+00:00", "meta": {"OBJECT_NAME": "KUIPER-00247", "OBJECT_ID": "2025-301V", "EPOCH": "2025-12-26T15:27:40.931136", "MEAN_MOTION": 15.34015344, "ECCENTRICITY": 0.0011231, "INCLINATION": 51.8629, "RA_OF_ASC_NODE": 58.1938, "ARG_OF_PERICENTER": 154.7768, "MEAN_ANOMALY": 205.3768, "EPHEMERIS_TYPE": 0, "CLASSIFICATION_TYPE": "U", "NORAD_CAT_ID": 67152, "ELEMENT_SET_NO": 999, "REV_AT_EPOCH": 250, "BSTAR": 0.00084977733, "MEAN_MOTION_DOT": 0.00028169, "MEAN_MOTION_DDOT": 0}, "tle": {"line1": "1 67152U 25301V   25360.64422374  .00028169  00000+0  84978-3 0  9994", "line2": "2 67152  51.8629  58.1938 0011231 154.7768 205.3768 15.34015344  2502"}}, "geometry": {"type": "Point", "coordinates": [67.69002391349031, 12.626856718435034]}}, {"type": "Feature", "properties": {"norad_id": 67153, "name": "KUIPER-00248", "group": "last-30-days", "lat": 31.3647004636668, "lon": 86.1121478505647, "alt_km": 459.0098819348277, "timestamp": "2025-12-26T18:39:31.001387+00:00", "meta": {"OBJECT_NAME": "KUIPER-00248", "OBJECT_ID": "2025-301W", "EPOCH": "2025-12-26T13:47:24.720288", "MEAN_MOTION": 15.34696919, "ECCENTRICITY": 0.00087479, "INCLINATION": 51.8682, "RA_OF_ASC_NODE": 58.48, "ARG_OF_PERICENTER": 142.7108, "MEAN_ANOMALY": 217.4486, "EPHEMERIS_TYPE": 0, "CLASSIFICATION_TYPE": "U", "NORAD_CAT_ID": 67153, "ELEMENT_SET_NO": 999, "REV_AT_EPOCH": 266, "BSTAR": 0.0010010759, "MEAN_MOTION_DOT": 0.00033987, "MEAN_MOTION_DDOT": 0}, "tle": {"line1": "1 67153U 25301W   25360.57459167  .00033987  00000+0  10011-2 0  9997", "line2": "2 67153  51.8682  58.4800 0008747 142.7108 217.4486 15.34696919  2667"}}, "geometry": {"type": "Point", "coordinates": [86.1121478505647, 31.3647004636668]}}, {"type": "Feature", "properties": {"norad_id": 67154, "name": "KUIPER-00249", "group": "last-30-days", "lat": 36.51905184115251, "lon": 93.05907470403481, "alt_km": 456.70537607537153, "timestamp": "2025-12-26T18:39:31.001397+00:00", "meta": {"OBJECT_NAME": "KUIPER-00249", "OBJECT_ID": "2025-301X", "EPOCH": "2025-12-26T15:19:11.135712", "MEAN_MOTION": 15.34823508, "ECCENTRICITY": 0.00081002, "INCLINATION": 51.8653, "RA_OF_ASC_NODE": 58.1564, "ARG_OF_PERICENTER": 139.941, "MEAN_ANOMALY": 220.2175, "EPHEMERIS_TYPE": 0, "CLASSIFICATION_TYPE": "U", "NORAD_CAT_ID": 67154, "ELEMENT_SET_NO": 999, "REV_AT_EPOCH": 250, "BSTAR": 0.00085989327, "MEAN_MOTION_DOT": 0.00029236, "MEAN_MOTION_DDOT": 0}, "tle": {"line1": "1 67154U 25301X   25360.63832333  .00029236  00000+0  85989-3 0  9994", "line2": "2 67154  51.8653  58.1564 0008100 139.9410 220.2175 15.34823508  2503"}}, "geometry": {"type": "Point", "coordinates": [93.05907470403481, 36.51905184115251]}}, {"type": "Feature", "properties": {"norad_id": 67155, "name": "KUIPER-00250", "group": "last-30-days", "lat": 46.619227777529396, "lon": 113.66491267818768, "alt_km": 451.50194334619664, "timestamp": "2025-12-26T18:39:31.001407+00:00", "meta": {"OBJECT_NAME": "KUIPER-00250", "OBJECT_ID": "2025-301Y", "EPOCH": "2025-12-26T15:14:29.263488", "MEAN_MOTION": 15.35370073, "ECCENTRICITY": 0.00062401, "INCLINATION": 51.8715, "RA_OF_ASC_NODE": 58.1338, "ARG_OF_PERICENTER": 130.2941, "MEAN_ANOMALY": 229.8591, "EPHEMERIS_TYPE": 0, "CLASSIFICATION_TYPE": "U", "NORAD_CAT_ID": 67155, "ELEMENT_SET_NO": 999, "REV_AT_EPOCH": 253, "BSTAR": 0.00084887979, "MEAN_MOTION_DOT": 0.00029358, "MEAN_MOTION_DDOT": 0}, "tle": {"line1": "1 67155U 25301Y   25360.63506092  .00029358  00000+0  84888-3 0  9997", "line2": "2 67155  51.8715  58.1338 0006240 130.2941 229.8591 15.35370073  2533"}}, "geometry": {"type": "Point", "coordinates": [113.66491267818768, 46.619227777529396]}}, {"type": "Feature", "properties": {"norad_id": 67156, "name": "KUIPER-00251", "group": "last-30-days", "lat": 33.68699543765377, "lon": 89.07360347031302, "alt_km": 457.5119477850649, "timestamp": "2025-12-26T18:39:31.001416+00:00", "meta": {"OBJECT_NAME": "KUIPER-00251", "OBJECT_ID": "2025-301Z", "EPOCH": "2025-12-26T15:20:18.388608", "MEAN_MOTION": 15.34794129, "ECCENTRICITY": 0.00087532, "INCLINATION": 51.8668, "RA_OF_ASC_NODE": 58.1618, "ARG_OF_PERICENTER": 138.1231, "MEAN_ANOMALY": 222.0426, "EPHEMERIS_TYPE": 0, "CLASSIFICATION_TYPE": "U", "NORAD_CAT_ID": 67156, "ELEMENT_SET_NO": 999, "REV_AT_EPOCH": 269, "BSTAR": 0.00093482401, "MEAN_MOTION_DOT": 0.00031803, "MEAN_MOTION_DDOT": 0}, "tle": {"line1": "1 67156U 25301Z   25360.63910172  .00031803  00000+0  93482-3 0  9994", "line2": "2 67156  51.8668  58.1618 0008753 138.1231 222.0426 15.34794129  2692"}}, "geometry": {"type": "Point", "coordinates": [89.07360347031302, 33.68699543765377]}}, {"type": "Feature", "properties": {"norad_id": 67157, "name": "KUIPER-00252", "group": "last-30-days", "lat": 22.091262546557736, "lon": 76.12277033953707, "alt_km": 463.82678164129993, "timestamp": "2025-12-26T18:39:31.001427+00:00", "meta": {"OBJECT_NAME": "KUIPER-00252", "OBJECT_ID": "2025-301AA", "EPOCH": "2025-12-26T15:24:28.777536", "MEAN_MOTION": 15.34303489, "ECCENTRICITY": 0.00097843, "INCLINATION": 51.8658, "RA_OF_ASC_NODE": 58.1806, "ARG_OF_PERICENTER": 148.3607, "MEAN_ANOMALY": 211.7968, "EPHEMERIS_TYPE": 0, "CLASSIFICATION_TYPE": "U", "NORAD_CAT_ID": 67157, "ELEMENT_SET_NO": 999, "REV_AT_EPOCH": 250, "BSTAR": 0.00067020405, "MEAN_MOTION_DOT": 0.00022314, "MEAN_MOTION_DDOT": 0}, "tle": {"line1": "1 67157U 25301AA  25360.64199974  .00022314  00000+0  67020-3 0  9991", "line2": "2 67157  51.8658  58.1806 0009784 148.3607 211.7968 15.34303489  2507"}}, "geometry": {"type": "Point", "coordinates": [76.12277033953707, 22.091262546557736]}}, {"type": "Feature", "properties": {"norad_id": 67158, "name": "KUIPER-00261", "group": "last-30-days", "lat": 48.92321362049288, "lon": 121.7496168565869, "alt_km": 450.68456992359825, "timestamp": "2025-12-26T18:39:31.001436+00:00", "meta": {"OBJECT_NAME": "KUIPER-00261", "OBJECT_ID": "2025-301AB", "EPOCH": "2025-12-26T12:05:30.948288", "MEAN_MOTION": 15.35434686, "ECCENTRICITY": 0.00056493, "INCLINATION": 51.8699, "RA_OF_ASC_NODE": 58.7563, "ARG_OF_PERICENTER": 127.9835, "MEAN_ANOMALY": 232.1662, "EPHEMERIS_TYPE": 0, "CLASSIFICATION_TYPE": "U", "NORAD_CAT_ID": 67158, "ELEMENT_SET_NO": 999, "REV_AT_EPOCH": 248, "BSTAR": 0.0009648579, "MEAN_MOTION_DOT": 0.00033506, "MEAN_MOTION_DDOT": 0}, "tle": {"line1": "1 67158U 25301AB  25360.50383042  .00033506  00000+0  96486-3 0  9991", "line2": "2 67158  51.8699  58.7563 0005649 127.9835 232.1662 15.35434686  2481"}}, "geometry": {"type": "Point", "coordinates": [121.7496168565869, 48.92321362049288]}}, {"type": "Feature", "properties": {"norad_id": 67159, "name": "KUIPER-00265", "group": "last-30-days", "lat": 47.518455939950556, "lon": 178.30229691881817, "alt_km": 448.9120938915403, "timestamp": "2025-12-26T18:39:31.001446+00:00", "meta": {"OBJECT_NAME": "KUIPER-00265", "OBJECT_ID": "2025-301AC", "EPOCH": "2025-12-26T13:29:51.805824", "MEAN_MOTION": 15.364286, "ECCENTRICITY": 0.00018621, "INCLINATION": 51.8739, "RA_OF_ASC_NODE": 58.3957, "ARG_OF_PERICENTER": 95.873, "MEAN_ANOMALY": 264.2468, "EPHEMERIS_TYPE": 0, "CLASSIFICATION_TYPE": "U", "NORAD_CAT_ID": 67159, "ELEMENT_SET_NO": 999, "REV_AT_EPOCH": 252, "BSTAR": 0.00067821901, "MEAN_MOTION_DOT": 0.00024167, "MEAN_MOTION_DDOT": 0}, "tle": {"line1": "1 67159U 25301AC  25360.56240516  .00024167  00000+0  67822-3 0  9991", "line2": "2 67159  51.8739  58.3957 0001862  95.8730 264.2468 15.36428600  2525"}}, "geometry": {"type": "Point", "coordinates": [178.30229691881817, 47.518455939950556]}}, {"type": "Feature", "properties": {"norad_id": 67160, "name": "GALILEO A", "group": "last-30-days", "lat": -21.734444914237827, "lon": 90.3303150313452, "alt_km": 22949.05266240548, "timestamp": "2025-12-26T18:39:31.001457+00:00", "meta": {"OBJECT_NAME": "GALILEO A", "OBJECT_ID": "2025-302A", "EPOCH": "2025-12-18T03:30:19.486368", "MEAN_MOTION": 1.72906186, "ECCENTRICITY": 0.00084238, "INCLINATION": 54.2406, "RA_OF_ASC_NODE": 107.2544, "ARG_OF_PERICENTER": 237.6458, "MEAN_ANOMALY": 122.2317, "EPHEMERIS_TYPE": 0, "CLASSIFICATION_TYPE": "U", "NORAD_CAT_ID": 67160, "ELEMENT_SET_NO": 999, "REV_AT_EPOCH": 2, "BSTAR": 0, "MEAN_MOTION_DOT": -7e-08, "MEAN_MOTION_DDOT": 0}, "tle": {"line1": "1 67160U 25302A   25352.14605887 -.00000007  00000+0  00000+0 0  9994", "line2": "2 67160  54.2406 107.2544 0008423 237.6458 122.2317  1.72906186    28"}}, "geometry": {"type": "Point", "coordinates": [90.3303150313452, -21.734444914237827]}}]}